ION SCV-004             
1 50993U 22002K   26068.68892644  .00006538  00000+0  23198-3 0  9998
2 50993  97.2961 128.2294 0007216   1.6783 358.4480 15.29369331230088
STARLINK-32201          
1 61512U 24183D   26068.43019996  .00000088  00000+0  15082-4 0  9991
2 61512  53.1600 130.8022 0000953  92.4645 267.6464 15.30191196 79798
